CTC2_L_00288001-01
1 10000U 24017RS  26075.70043981  .00000000  00000+0  00000-0 0  9996
2 10000  45.0000   0.0000 0000000   0.0000   0.0000 13.81096544    14
CTC2_L_00288001-02
1 10001U 23671LU  26075.70043981  .00000000  00000+0  00000-0 0  9992
2 10001  45.0000   0.0000 0000000   0.0000  90.0000 13.81096544    14
CTC2_L_00288001-03
1 10002U 22663WF  26075.70043981  .00000000  00000+0  00000-0 0  9993
2 10002  45.0000   0.0000 0000000   0.0000 180.0000 13.81096544    15
CTC2_L_00288001-04
1 10003U 23787UZ  26075.70043981  .00000000  00000+0  00000-0 0  9992
2 10003  45.0000   0.0000 0000000   0.0000 270.0000 13.81096544    16
CTC2_L_00288002-01
1 10004U 24972WY  26075.70043981  .00000000  00000+0  00000-0 0  9990
2 10004  45.0000  12.0000 0000000   0.0000  12.0000 13.81096544    14
CTC2_L_00288002-02
1 10005U 26706UB  26075.70043981  .00000000  00000+0  00000-0 0  9998
2 10005  45.0000  12.0000 0000000   0.0000 102.0000 13.81096544    15
CTC2_L_00288002-03
1 10006U 24960ZS  26075.70043981  .00000000  00000+0  00000-0 0  9999
2 10006  45.0000  12.0000 0000000   0.0000 192.0000 13.81096544    15
CTC2_L_00288002-04
1 10007U 23155EZ  26075.70043981  .00000000  00000+0  00000-0 0  9995
2 10007  45.0000  12.0000 0000000   0.0000 282.0000 13.81096544    16
CTC2_L_00288003-01
1 10008U 23297DY  26075.70043981  .00000000  00000+0  00000-0 0  9993
2 10008  45.0000  24.0000 0000000   0.0000  24.0000 13.81096544    14
CTC2_L_00288003-02
1 10009U 24741BF  26075.70043981  .00000000  00000+0  00000-0 0  9999
2 10009  45.0000  24.0000 0000000   0.0000 114.0000 13.81096544    15
CTC2_L_00288003-03
1 10010U 24767JQ  26075.70043981  .00000000  00000+0  00000-0 0  9999
2 10010  45.0000  24.0000 0000000   0.0000 204.0000 13.81096544    17
CTC2_L_00288003-04
1 10011U 24593YO  26075.70043981  .00000000  00000+0  00000-0 0  9997
2 10011  45.0000  24.0000 0000000   0.0000 294.0000 13.81096544    17
CTC2_L_00288004-01
1 10012U 23397UE  26075.70043981  .00000000  00000+0  00000-0 0  9999
2 10012  45.0000  36.0000 0000000   0.0000  36.0000 13.81096544    15
CTC2_L_00288004-02
1 10013U 26687HV  26075.70043981  .00000000  00000+0  00000-0 0  9995
2 10013  45.0000  36.0000 0000000   0.0000 126.0000 13.81096544    16
CTC2_L_00288004-03
1 10014U 26869EC  26075.70043981  .00000000  00000+0  00000-0 0  9998
2 10014  45.0000  36.0000 0000000   0.0000 216.0000 13.81096544    17
CTC2_L_00288004-04
1 10015U 24215HI  26075.70043981  .00000000  00000+0  00000-0 0  9992
2 10015  45.0000  36.0000 0000000   0.0000 306.0000 13.81096544    18
CTC2_L_00288005-01
1 10016U 22143ZY  26075.70043981  .00000000  00000+0  00000-0 0  9991
2 10016  45.0000  48.0000 0000000   0.0000  48.0000 13.81096544    15
CTC2_L_00288005-02
1 10017U 24181JF  26075.70043981  .00000000  00000+0  00000-0 0  9996
2 10017  45.0000  48.0000 0000000   0.0000 138.0000 13.81096544    16
CTC2_L_00288005-03
1 10018U 22995QE  26075.70043981  .00000000  00000+0  00000-0 0  9998
2 10018  45.0000  48.0000 0000000   0.0000 228.0000 13.81096544    17
CTC2_L_00288005-04
1 10019U 22099YL  26075.70043981  .00000000  00000+0  00000-0 0  9994
2 10019  45.0000  48.0000 0000000   0.0000 318.0000 13.81096544    18
CTC2_L_00288006-01
1 10020U 24260XS  26075.70043981  .00000000  00000+0  00000-0 0  9998
2 10020  45.0000  60.0000 0000000   0.0000  60.0000 13.81096544    18
CTC2_L_00288006-02
1 10021U 24140ZP  26075.70043981  .00000000  00000+0  00000-0 0  9996
2 10021  45.0000  60.0000 0000000   0.0000 150.0000 13.81096544    19
CTC2_L_00288006-03
1 10022U 26354YS  26075.70043981  .00000000  00000+0  00000-0 0  9996
2 10022  45.0000  60.0000 0000000   0.0000 240.0000 13.81096544    10
CTC2_L_00288006-04
1 10023U 25706J   26075.70043981  .00000000  00000+0  00000-0 0  9997
2 10023  45.0000  60.0000 0000000   0.0000 330.0000 13.81096544    11
CTC2_L_00288007-01
1 10024U 26813TM  26075.70043981  .00000000  00000+0  00000-0 0  9998
2 10024  45.0000  72.0000 0000000   0.0000  72.0000 13.81096544    18
CTC2_L_00288007-02
1 10025U 26494QZ  26075.70043981  .00000000  00000+0  00000-0 0  9994
2 10025  45.0000  72.0000 0000000   0.0000 162.0000 13.81096544    19
CTC2_L_00288007-03
1 10026U 23457DB  26075.70043981  .00000000  00000+0  00000-0 0  9991
2 10026  45.0000  72.0000 0000000   0.0000 252.0000 13.81096544    10
CTC2_L_00288007-04
1 10027U 26958KM  26075.70043981  .00000000  00000+0  00000-0 0  9991
2 10027  45.0000  72.0000 0000000   0.0000 342.0000 13.81096544    11
CTC2_L_00288008-01
1 10028U 24887RW  26075.70043981  .00000000  00000+0  00000-0 0  9991
2 10028  45.0000  84.0000 0000000   0.0000  84.0000 13.81096544    18
CTC2_L_00288008-02
1 10029U 25031YD  26075.70043981  .00000000  00000+0  00000-0 0  9994
2 10029  45.0000  84.0000 0000000   0.0000 174.0000 13.81096544    19
CTC2_L_00288008-03
1 10030U 22765MZ  26075.70043981  .00000000  00000+0  00000-0 0  9997
2 10030  45.0000  84.0000 0000000   0.0000 264.0000 13.81096544    11
CTC2_L_00288008-04
1 10031U 26914TU  26075.70043981  .00000000  00000+0  00000-0 0  9998
2 10031  45.0000  84.0000 0000000   0.0000 354.0000 13.81096544    12
CTC2_L_00288009-01
1 10032U 25899CV  26075.70043981  .00000000  00000+0  00000-0 0  9990
2 10032  45.0000  96.0000 0000000   0.0000  96.0000 13.81096544    19
CTC2_L_00288009-02
1 10033U 25692QB  26075.70043981  .00000000  00000+0  00000-0 0  9992
2 10033  45.0000  96.0000 0000000   0.0000 186.0000 13.81096544    10
CTC2_L_00288009-03
1 10034U 23578KO  26075.70043981  .00000000  00000+0  00000-0 0  9994
2 10034  45.0000  96.0000 0000000   0.0000 276.0000 13.81096544    11
CTC2_L_00288009-04
1 10035U 23197UM  26075.70043981  .00000000  00000+0  00000-0 0  9992
2 10035  45.0000  96.0000 0000000   0.0000   6.0000 13.81096544    13
CTC2_L_00288010-01
1 10036U 22087DE  26075.70043981  .00000000  00000+0  00000-0 0  9990
2 10036  45.0000 108.0000 0000000   0.0000 108.0000 13.81096544    11
CTC2_L_00288010-02
1 10037U 25688GE  26075.70043981  .00000000  00000+0  00000-0 0  9991
2 10037  45.0000 108.0000 0000000   0.0000 198.0000 13.81096544    11
CTC2_L_00288010-03
1 10038U 25345YZ  26075.70043981  .00000000  00000+0  00000-0 0  9992
2 10038  45.0000 108.0000 0000000   0.0000 288.0000 13.81096544    12
CTC2_L_00288010-04
1 10039U 26245VQ  26075.70043981  .00000000  00000+0  00000-0 0  9993
2 10039  45.0000 108.0000 0000000   0.0000  18.0000 13.81096544    14
CTC2_L_00288011-01
1 10040U 26513RT  26075.70043981  .00000000  00000+0  00000-0 0  9993
2 10040  45.0000 120.0000 0000000   0.0000 120.0000 13.81096544    14
CTC2_L_00288011-02
1 10041U 22430QO  26075.70043981  .00000000  00000+0  00000-0 0  9998
2 10041  45.0000 120.0000 0000000   0.0000 210.0000 13.81096544    15
CTC2_L_00288011-03
1 10042U 23126UN  26075.70043981  .00000000  00000+0  00000-0 0  9992
2 10042  45.0000 120.0000 0000000   0.0000 300.0000 13.81096544    16
CTC2_L_00288011-04
1 10043U 22245LN  26075.70043981  .00000000  00000+0  00000-0 0  9994
2 10043  45.0000 120.0000 0000000   0.0000  30.0000 13.81096544    17
CTC2_L_00288012-01
1 10044U 24961BE  26075.70043981  .00000000  00000+0  00000-0 0  9992
2 10044  45.0000 132.0000 0000000   0.0000 132.0000 13.81096544    14
CTC2_L_00288012-02
1 10045U 26464DM  26075.70043981  .00000000  00000+0  00000-0 0  9993
2 10045  45.0000 132.0000 0000000   0.0000 222.0000 13.81096544    15
CTC2_L_00288012-03
1 10046U 25171XM  26075.70043981  .00000000  00000+0  00000-0 0  9998
2 10046  45.0000 132.0000 0000000   0.0000 312.0000 13.81096544    16
CTC2_L_00288012-04
1 10047U 24962LQ  26075.70043981  .00000000  00000+0  00000-0 0  9996
2 10047  45.0000 132.0000 0000000   0.0000  42.0000 13.81096544    17
CTC2_L_00288013-01
1 10048U 25528AW  26075.70043981  .00000000  00000+0  00000-0 0  9996
2 10048  45.0000 144.0000 0000000   0.0000 144.0000 13.81096544    14
CTC2_L_00288013-02
1 10049U 26667EJ  26075.70043981  .00000000  00000+0  00000-0 0  9992
2 10049  45.0000 144.0000 0000000   0.0000 234.0000 13.81096544    15
CTC2_L_00288013-03
1 10050U 24304LI  26075.70043981  .00000000  00000+0  00000-0 0  9990
2 10050  45.0000 144.0000 0000000   0.0000 324.0000 13.81096544    17
CTC2_L_00288013-04
1 10051U 26416GM  26075.70043981  .00000000  00000+0  00000-0 0  9997
2 10051  45.0000 144.0000 0000000   0.0000  54.0000 13.81096544    18
CTC2_L_00288014-01
1 10052U 26345CE  26075.70043981  .00000000  00000+0  00000-0 0  9999
2 10052  45.0000 156.0000 0000000   0.0000 156.0000 13.81096544    15
CTC2_L_00288014-02
1 10053U 22495SY  26075.70043981  .00000000  00000+0  00000-0 0  9992
2 10053  45.0000 156.0000 0000000   0.0000 246.0000 13.81096544    16
CTC2_L_00288014-03
1 10054U 26881F   26075.70043981  .00000000  00000+0  00000-0 0  9996
2 10054  45.0000 156.0000 0000000   0.0000 336.0000 13.81096544    17
CTC2_L_00288014-04
1 10055U 23267CZ  26075.70043981  .00000000  00000+0  00000-0 0  9992
2 10055  45.0000 156.0000 0000000   0.0000  66.0000 13.81096544    18
CTC2_L_00288015-01
1 10056U 26118NC  26075.70043981  .00000000  00000+0  00000-0 0  9991
2 10056  45.0000 168.0000 0000000   0.0000 168.0000 13.81096544    15
CTC2_L_00288015-02
1 10057U 23173MZ  26075.70043981  .00000000  00000+0  00000-0 0  9990
2 10057  45.0000 168.0000 0000000   0.0000 258.0000 13.81096544    16
CTC2_L_00288015-03
1 10058U 26968ZH  26075.70043981  .00000000  00000+0  00000-0 0  9996
2 10058  45.0000 168.0000 0000000   0.0000 348.0000 13.81096544    17
CTC2_L_00288015-04
1 10059U 25809OJ  26075.70043981  .00000000  00000+0  00000-0 0  9990
2 10059  45.0000 168.0000 0000000   0.0000  78.0000 13.81096544    18
CTC2_L_00288016-01
1 10060U 23226DR  26075.70043981  .00000000  00000+0  00000-0 0  9993
2 10060  45.0000 180.0000 0000000   0.0000 180.0000 13.81096544    18
CTC2_L_00288016-02
1 10061U 22913PD  26075.70043981  .00000000  00000+0  00000-0 0  9996
2 10061  45.0000 180.0000 0000000   0.0000 270.0000 13.81096544    19
